[Satellite]
VERSION=1.1
NAME=EUTELSAT W75
NICKNAME=EUTELSAT W75
TLE1=1 24931U 97049A   11059.74954116 -.00000110  00000-0  10000-3 0  3217
TLE2=2 24931   1.8590  75.3418 0003022 317.6429 110.3070  1.00272323 49488
